{
  "type": "FeatureCollection",
  "features": [
    {
      "type": "Feature",
      "properties": {
        "norad_id": 66467,
        "name": "STARLINK-35682",
        "group": "last-30-days",
        "lat": -17.268219596840364,
        "lon": -71.17275947875153,
        "alt_km": 418.8050392474015,
        "timestamp": "2025-12-09T14:52:24.940961+00:00",
        "meta_object_name": "STARLINK-35682",
        "meta_object_id": "2025-262M",
        "meta_epoch": "2025-12-09T04:42:23.663808",
        "meta_mean_motion": 15.49450624,
        "meta_eccentricity": 0.00046366,
        "meta_inclination": 43.0003,
        "meta_ra_of_asc_node": 91.8146,
        "meta_arg_of_pericenter": 263.8591,
        "meta_mean_anomaly": 96.174,
        "meta_ephemeris_type": 0,
        "meta_classification_type": "U",
        "meta_norad_cat_id": 66467,
        "meta_element_set_no": 999,
        "meta_rev_at_epoch": 501,
        "meta_bstar": -0.0021493222,
        "meta_mean_motion_dot": -0.00119705,
        "meta_mean_motion_ddot": 0,
        "tle_line1": "1 66467U 25262M   25343.19610722 -.00119705  00000+0 -21493-2 0  9996",
        "tle_line2": "2 66467  43.0003  91.8146 0004636 263.8591  96.1740 15.49450624  5016"
      },
      "geometry": {
        "type": "Point",
        "coordinates": [
          -71.17275947875153,
          -17.268219596840364
        ]
      }
    },
    {
      "type": "Feature",
      "properties": {
        "norad_id": 66468,
        "name": "STARLINK-35331",
        "group": "last-30-days",
        "lat": -23.13611961407319,
        "lon": -63.389895104975814,
        "alt_km": 416.1835360085788,
        "timestamp": "2025-12-09T14:52:24.940971+00:00",
        "meta_object_name": "STARLINK-35331",
        "meta_object_id": "2025-262N",
        "meta_epoch": "2025-12-09T04:40:31.158912",
        "meta_mean_motion": 15.50662156,
        "meta_eccentricity": 0.00013411,
        "meta_inclination": 43.0004,
        "meta_ra_of_asc_node": 91.8048,
        "meta_arg_of_pericenter": 275.9307,
        "meta_mean_anomaly": 84.1401,
        "meta_ephemeris_type": 0,
        "meta_classification_type": "U",
        "meta_norad_cat_id": 66468,
        "meta_element_set_no": 999,
        "meta_rev_at_epoch": 501,
        "meta_bstar": 0.0028346436,
        "meta_mean_motion_dot": 0.0017012,
        "meta_mean_motion_ddot": 0,
        "tle_line1": "1 66468U 25262N   25343.19480508  .00170120  00000+0  28346-2 0  9994",
        "tle_line2": "2 66468  43.0004  91.8048 0001341 275.9307  84.1401 15.50662156  5016"
      },
      "geometry": {
        "type": "Point",
        "coordinates": [
          -63.389895104975814,
          -23.13611961407319
        ]
      }
    },
    {
      "type": "Feature",
      "properties": {
        "norad_id": 66469,
        "name": "STARLINK-35451",
        "group": "last-30-days",
        "lat": -26.521061277005938,
        "lon": -58.31699842223637,
        "alt_km": 416.2814838746108,
        "timestamp": "2025-12-09T14:52:24.940983+00:00",
        "meta_object_name": "STARLINK-35451",
        "meta_object_id": "2025-262P",
        "meta_epoch": "2025-12-09T04:39:02.299968",
        "meta_mean_motion": 15.50651779,
        "meta_eccentricity": 0.00016178,
        "meta_inclination": 43.0004,
        "meta_ra_of_asc_node": 91.7957,
        "meta_arg_of_pericenter": 275.8397,
        "meta_mean_anomaly": 84.2279,
        "meta_ephemeris_type": 0,
        "meta_classification_type": "U",
        "meta_norad_cat_id": 66469,
        "meta_element_set_no": 999,
        "meta_rev_at_epoch": 501,
        "meta_bstar": 0.0028846139,
        "meta_mean_motion_dot": 0.00173128,
        "meta_mean_motion_ddot": 0,
        "tle_line1": "1 66469U 25262P   25343.19377662  .00173128  00000+0  28846-2 0  9997",
        "tle_line2": "2 66469  43.0004  91.7957 0001617 275.8397  84.2279 15.50651779  5012"
      },
      "geometry": {
        "type": "Point",
        "coordinates": [
          -58.31699842223637,
          -26.521061277005938
        ]
      }
    },
    {
      "type": "Feature",
      "properties": {
        "norad_id": 66470,
        "name": "STARLINK-35655",
        "group": "last-30-days",
        "lat": -24.269499647546102,
        "lon": -61.74986799135173,
        "alt_km": 416.2850160593989,
        "timestamp": "2025-12-09T14:52:24.940993+00:00",
        "meta_object_name": "STARLINK-35655",
        "meta_object_id": "2025-262Q",
        "meta_epoch": "2025-12-09T04:40:01.594560",
        "meta_mean_motion": 15.50649063,
        "meta_eccentricity": 0.00017517,
        "meta_inclination": 43.0004,
        "meta_ra_of_asc_node": 91.8019,
        "meta_arg_of_pericenter": 283.8222,
        "meta_mean_anomaly": 76.2443,
        "meta_ephemeris_type": 0,
        "meta_classification_type": "U",
        "meta_norad_cat_id": 66470,
        "meta_element_set_no": 999,
        "meta_rev_at_epoch": 501,
        "meta_bstar": 0.0029207,
        "meta_mean_motion_dot": 0.00175332,
        "meta_mean_motion_ddot": 0,
        "tle_line1": "1 66470U 25262Q   25343.19446290  .00175332  00000+0  29207-2 0  9994",
        "tle_line2": "2 66470  43.0004  91.8019 0001751 283.8222  76.2443 15.50649063  5016"
      },
      "geometry": {
        "type": "Point",
        "coordinates": [
          -61.74986799135173,
          -24.269499647546102
        ]
      }
    },
    {
      "type": "Feature",
      "properties": {
        "norad_id": 66471,
        "name": "STARLINK-35569",
        "group": "last-30-days",
        "lat": -25.433645508432555,
        "lon": -60.00618164287535,
        "alt_km": 416.14746464768814,
        "timestamp": "2025-12-09T14:52:24.941003+00:00",
        "meta_object_name": "STARLINK-35569",
        "meta_object_id": "2025-262R",
        "meta_epoch": "2025-12-09T04:39:31.788288",
        "meta_mean_motion": 15.50666582,
        "meta_eccentricity": 0.00012348,
        "meta_inclination": 43.0001,
        "meta_ra_of_asc_node": 91.7985,
        "meta_arg_of_pericenter": 261.0083,
        "meta_mean_anomaly": 99.0637,
        "meta_ephemeris_type": 0,
        "meta_classification_type": "U",
        "meta_norad_cat_id": 66471,
        "meta_element_set_no": 999,
        "meta_rev_at_epoch": 501,
        "meta_bstar": 0.0029349032,
        "meta_mean_motion_dot": 0.00176318,
        "meta_mean_motion_ddot": 0,
        "tle_line1": "1 66471U 25262R   25343.19411792  .00176318  00000+0  29349-2 0  9996",
        "tle_line2": "2 66471  43.0001  91.7985 0001234 261.0083  99.0637 15.50666582  5017"
      },
      "geometry": {
        "type": "Point",
        "coordinates": [
          -60.00618164287535,
          -25.433645508432555
        ]
      }
    },
    {
      "type": "Feature",
      "properties": {
        "norad_id": 66472,
        "name": "STARLINK-35567",
        "group": "last-30-days",
        "lat": -27.620010756496946,
        "lon": -56.54228984734303,
        "alt_km": 416.3493042934015,
        "timestamp": "2025-12-09T14:52:24.941015+00:00",
        "meta_object_name": "STARLINK-35567",
        "meta_object_id": "2025-262S",
        "meta_epoch": "2025-12-09T04:38:32.633664",
        "meta_mean_motion": 15.50656121,
        "meta_eccentricity": 0.00015476,
        "meta_inclination": 43.0005,
        "meta_ra_of_asc_node": 91.7935,
        "meta_arg_of_pericenter": 276.9238,
        "meta_mean_anomaly": 83.1446,
        "meta_ephemeris_type": 0,
        "meta_classification_type": "U",
        "meta_norad_cat_id": 66472,
        "meta_element_set_no": 999,
        "meta_rev_at_epoch": 501,
        "meta_bstar": 0.0029427378,
        "meta_mean_motion_dot": 0.00176733,
        "meta_mean_motion_ddot": 0,
        "tle_line1": "1 66472U 25262S   25343.19343326  .00176733  00000+0  29427-2 0  9992",
        "tle_line2": "2 66472  43.0005  91.7935 0001547 276.9238  83.1446 15.50656121  5011"
      },
      "geometry": {
        "type": "Point",
        "coordinates": [
          -56.54228984734303,
          -27.620010756496946
        ]
      }
    },
    {
      "type": "Feature",
      "properties": {
        "norad_id": 66473,
        "name": "STARLINK-35568",
        "group": "last-30-days",
        "lat": -28.66030339772305,
        "lon": -54.79395963210136,
        "alt_km": 416.58883815683384,
        "timestamp": "2025-12-09T14:52:24.941026+00:00",
        "meta_object_name": "STARLINK-35568",
        "meta_object_id": "2025-262T",
        "meta_epoch": "2025-12-09T04:38:03.107328",
        "meta_mean_motion": 15.50637875,
        "meta_eccentricity": 0.00018385,
        "meta_inclination": 43.0004,
        "meta_ra_of_asc_node": 91.79,
        "meta_arg_of_pericenter": 288.7381,
        "meta_mean_anomaly": 71.328,
        "meta_ephemeris_type": 0,
        "meta_classification_type": "U",
        "meta_norad_cat_id": 66473,
        "meta_element_set_no": 999,
        "meta_rev_at_epoch": 501,
        "meta_bstar": 0.0026951753,
        "meta_mean_motion_dot": 0.00161413,
        "meta_mean_motion_ddot": 0,
        "tle_line1": "1 66473U 25262T   25343.19309152  .00161413  00000+0  26952-2 0  9991",
        "tle_line2": "2 66473  43.0004  91.7900 0001838 288.7381  71.3280 15.50637875  5016"
      },
      "geometry": {
        "type": "Point",
        "coordinates": [
          -54.79395963210136,
          -28.66030339772305
        ]
      }
    }
  ]
}